{"type": "FeatureCollection", "features": [ {"type": "Feature", "properties": {"norad_id": 31169, "name": "FENGYUN 1C DEB", "group": "fengyun-1c-debris", "lat": 51.24524609848118, "lon": -162.99359828082277, "alt_km": 797.7700474741041, "timestamp": "2025-12-05T07:38:19.126214+00:00", "meta": {"OBJECT_NAME": "FENGYUN 1C DEB", "OBJECT_ID": "1999-025BHX", "EPOCH": "2025-12-03T19:41:29.870304", "MEAN_MOTION": 14.26310452, "ECCENTRICITY": 0.005813, "INCLINATION": 99.1573, "RA_OF_ASC_NODE": 3.8489, "ARG_OF_PERICENTER": 43.7006, "MEAN_ANOMALY": 316.8753, "EPHEMERIS_TYPE": 0, "CLASSIFICATION_TYPE": "U", "NORAD_CAT_ID": 31169, "ELEMENT_SET_NO": 999, "REV_AT_EPOCH": 56977, "BSTAR": 0.003791, "MEAN_MOTION_DOT": 9.228e-05, "MEAN_MOTION_DDOT": 0}, "tle": {"line1": "1 31169U 99025BHX 25337.82048461  .00009228  00000+0  37910-2 0  9990", "line2": "2 31169  99.1573   3.8489 0058130  43.7006 316.8753 14.26310452569770"}}, "geometry": {"type": "Point", "coordinates": [-162.99359828082277, 51.24524609848118]}}, {"type": "Feature", "properties": {"norad_id": 31171, "name": "FENGYUN 1C DEB", "group": "fengyun-1c-debris", "lat": 2.2216219894834692, "lon": -30.793817073701483, "alt_km": 676.8257867524544, "timestamp": "2025-12-05T07:38:19.126224+00:00", "meta": {"OBJECT_NAME": "FENGYUN 1C DEB", "OBJECT_ID": "1999-025BHZ", "EPOCH": "2025-12-04T05:07:12.252864", "MEAN_MOTION": 14.3439015, "ECCENTRICITY": 0.0155946, "INCLINATION": 98.0143, "RA_OF_ASC_NODE": 328.4939, "ARG_OF_PERICENTER": 342.3331, "MEAN_ANOMALY": 76.7904, "EPHEMERIS_TYPE": 0, "CLASSIFICATION_TYPE": "U", "NORAD_CAT_ID": 31171, "ELEMENT_SET_NO": 999, "REV_AT_EPOCH": 95708, "BSTAR": 0.011664, "MEAN_MOTION_DOT": 0.00037777, "MEAN_MOTION_DDOT": 0}, "tle": {"line1": "1 31171U 99025BHZ 25338.21333626  .00037777  00000+0  11664-1 0  9994", "line2": "2 31171  98.0143 328.4939 0155946 342.3331  76.7904 14.34390150957089"}}, "geometry": {"type": "Point", "coordinates": [-30.793817073701483, 2.2216219894834692]}}, {"type": "Feature", "properties": {"norad_id": 31172, "name": "FENGYUN 1C DEB", "group": "fengyun-1c-debris", "lat": -15.621556607880176, "lon": -13.615076440418328, "alt_km": 727.4524017341691, "timestamp": "2025-12-05T07:38:19.126234+00:00", "meta": {"OBJECT_NAME": "FENGYUN 1C DEB", "OBJECT_ID": "1999-025BJA", "EPOCH": "2025-12-03T18:48:21.048480", "MEAN_MOTION": 14.31497932, "ECCENTRICITY": 0.01481793, "INCLINATION": 98.425, "RA_OF_ASC_NODE": 342.5203, "ARG_OF_PERICENTER": 295.2463, "MEAN_ANOMALY": 63.3425, "EPHEMERIS_TYPE": 0, "CLASSIFICATION_TYPE": "U", "NORAD_CAT_ID": 31172, "ELEMENT_SET_NO": 999, "REV_AT_EPOCH": 97498, "BSTAR": 0.00025788002, "MEAN_MOTION_DOT": 7.26e-06, "MEAN_MOTION_DDOT": 0}, "tle": {"line1": "1 31172U 99025BJA 25337.78357695  .00000726  00000+0  25788-3 0  9996", "line2": "2 31172  98.4250 342.5203 0148179 295.2463  63.3425 14.31497932974987"}}, "geometry": {"type": "Point", "coordinates": [-13.615076440418328, -15.621556607880176]}}, {"type": "Feature", "properties": {"norad_id": 31175, "name": "FENGYUN 1C DEB", "group": "fengyun-1c-debris", "lat": -28.939419468427754, "lon": 154.71746295190616, "alt_km": 651.4285083463174, "timestamp": "2025-12-05T07:38:19.126244+00:00", "meta": {"OBJECT_NAME": "FENGYUN 1C DEB", "OBJECT_ID": "1999-025BJD", "EPOCH": "2025-12-01T05:36:03.315744", "MEAN_MOTION": 14.5932158, "ECCENTRICITY": 0.0074068, "INCLINATION": 98.3999, "RA_OF_ASC_NODE": 335.2701, "ARG_OF_PERICENTER": 201.7311, "MEAN_ANOMALY": 158.074, "EPHEMERIS_TYPE": 0, "CLASSIFICATION_TYPE": "U", "NORAD_CAT_ID": 31175, "ELEMENT_SET_NO": 999, "REV_AT_EPOCH": 65471, "BSTAR": 0.0049039, "MEAN_MOTION_DOT": 0.00024116, "MEAN_MOTION_DDOT": 0}, "tle": {"line1": "1 31175U 99025BJD 25335.23337171  .00024116  00000+0  49039-2 0  9997", "line2": "2 31175  98.3999 335.2701 0074068 201.7311 158.0740 14.59321580654713"}}, "geometry": {"type": "Point", "coordinates": [154.71746295190616, -28.939419468427754]}}, {"type": "Feature", "properties": {"norad_id": 31177, "name": "FENGYUN 1C DEB", "group": "fengyun-1c-debris", "lat": -80.3056469901283, "lon": -42.038573216770516, "alt_km": 910.2355591494761, "timestamp": "2025-12-05T07:38:19.126254+00:00", "meta": {"OBJECT_NAME": "FENGYUN 1C DEB", "OBJECT_ID": "1999-025BJF", "EPOCH": "2025-12-01T06:04:03.773280", "MEAN_MOTION": 13.62101426, "ECCENTRICITY": 0.0311511, "INCLINATION": 98.7576, "RA_OF_ASC_NODE": 249.8401, "ARG_OF_PERICENTER": 343.5186, "MEAN_ANOMALY": 168.581, "EPHEMERIS_TYPE": 0, "CLASSIFICATION_TYPE": "U", "NORAD_CAT_ID": 31177, "ELEMENT_SET_NO": 999, "REV_AT_EPOCH": 66055, "BSTAR": 0.0077346, "MEAN_MOTION_DOT": 8.228e-05, "MEAN_MOTION_DDOT": 0}, "tle": {"line1": "1 31177U 99025BJF 25335.25282145  .00008228  00000+0  77346-2 0  9999", "line2": "2 31177  98.7576 249.8401 0311511 343.5186 168.5810 13.62101426660550"}}, "geometry": {"type": "Point", "coordinates": [-42.038573216770516, -80.3056469901283]}}, {"type": "Feature", "properties": {"norad_id": 31178, "name": "FENGYUN 1C DEB", "group": "fengyun-1c-debris", "lat": -12.13386611257306, "lon": 158.9069645786719, "alt_km": 896.1610293774283, "timestamp": "2025-12-05T07:38:19.126264+00:00", "meta": {"OBJECT_NAME": "FENGYUN 1C DEB", "OBJECT_ID": "1999-025BJG", "EPOCH": "2025-12-04T05:24:08.660736", "MEAN_MOTION": 14.22068287, "ECCENTRICITY": 0.0126423, "INCLINATION": 99.5125, "RA_OF_ASC_NODE": 339.7945, "ARG_OF_PERICENTER": 339.6357, "MEAN_ANOMALY": 19.9802, "EPHEMERIS_TYPE": 0, "CLASSIFICATION_TYPE": "U", "NORAD_CAT_ID": 31178, "ELEMENT_SET_NO": 999, "REV_AT_EPOCH": 95694, "BSTAR": 0.004612, "MEAN_MOTION_DOT": 0.00011036, "MEAN_MOTION_DDOT": 0}, "tle": {"line1": "1 31178U 99025BJG 25338.22510024  .00011036  00000+0  46120-2 0  9997", "line2": "2 31178  99.5125 339.7945 0126423 339.6357  19.9802 14.22068287956949"}}, "geometry": {"type": "Point", "coordinates": [158.9069645786719, -12.13386611257306]}}, {"type": "Feature", "properties": {"norad_id": 31179, "name": "FENGYUN 1C DEB", "group": "fengyun-1c-debris", "lat": 46.835014371860524, "lon": -170.80161252181725, "alt_km": 971.8687409697559, "timestamp": "2025-12-05T07:38:19.126274+00:00", "meta": {"OBJECT_NAME": "FENGYUN 1C DEB", "OBJECT_ID": "1999-025BJH", "EPOCH": "2025-12-03T18:47:29.481504", "MEAN_MOTION": 13.91881058, "ECCENTRICITY": 0.02153706, "INCLINATION": 99.0219, "RA_OF_ASC_NODE": 357.9513, "ARG_OF_PERICENTER": 25.2489, "MEAN_ANOMALY": 335.9014, "EPHEMERIS_TYPE": 0, "CLASSIFICATION_TYPE": "U", "NORAD_CAT_ID": 31179, "ELEMENT_SET_NO": 999, "REV_AT_EPOCH": 61816, "BSTAR": 0.0015971824, "MEAN_MOTION_DOT": 2.417e-05, "MEAN_MOTION_DDOT": 0}, "tle": {"line1": "1 31179U 99025BJH 25337.78298011  .00002417  00000+0  15972-2 0  9991", "line2": "2 31179  99.0219 357.9513 0215370  25.2489 335.9014 13.91881058618165"}}, "geometry": {"type": "Point", "coordinates": [-170.80161252181725, 46.835014371860524]}}, {"type": "Feature", "properties": {"norad_id": 31180, "name": "FENGYUN 1C DEB", "group": "fengyun-1c-debris", "lat": 78.88696384290073, "lon": -13.115781545577741, "alt_km": 637.3866439122221, "timestamp": "2025-12-05T07:38:19.126284+00:00", "meta": {"OBJECT_NAME": "FENGYUN 1C DEB", "OBJECT_ID": "1999-025BJJ", "EPOCH": "2025-12-04T03:57:54.779904", "MEAN_MOTION": 13.70330366, "ECCENTRICITY": 0.04984488, "INCLINATION": 99.2171, "RA_OF_ASC_NODE": 110.0219, "ARG_OF_PERICENTER": 82.4883, "MEAN_ANOMALY": 86.8977, "EPHEMERIS_TYPE": 0, "CLASSIFICATION_TYPE": "U", "NORAD_CAT_ID": 31180, "ELEMENT_SET_NO": 999, "REV_AT_EPOCH": 63949, "BSTAR": 0.00041828021, "MEAN_MOTION_DOT": 8.53e-06, "MEAN_MOTION_DDOT": 0}, "tle": {"line1": "1 31180U 99025BJJ 25338.16521736  .00000853  00000+0  41828-3 0  9991", "line2": "2 31180  99.2171 110.0219 0498448  82.4883  86.8977 13.70330366639496"}}, "geometry": {"type": "Point", "coordinates": [-13.115781545577741, 78.88696384290073]}}, {"type": "Feature", "properties": {"norad_id": 31181, "name": "FENGYUN 1C DEB", "group": "fengyun-1c-debris", "lat": -45.23012786242584, "lon": 20.989564069820688, "alt_km": 886.6923240621454, "timestamp": "2025-12-05T07:38:19.126294+00:00", "meta": {"OBJECT_NAME": "FENGYUN 1C DEB", "OBJECT_ID": "1999-025BJK", "EPOCH": "2025-12-04T01:30:15.706656", "MEAN_MOTION": 14.11841784, "ECCENTRICITY": 0.00481584, "INCLINATION": 98.7766, "RA_OF_ASC_NODE": 10.8018, "ARG_OF_PERICENTER": 98.6212, "MEAN_ANOMALY": 317.7144, "EPHEMERIS_TYPE": 0, "CLASSIFICATION_TYPE": "U", "NORAD_CAT_ID": 31181, "ELEMENT_SET_NO": 999, "REV_AT_EPOCH": 95645, "BSTAR": 0.0015975892, "MEAN_MOTION_DOT": 2.906e-05, "MEAN_MOTION_DDOT": 0}, "tle": {"line1": "1 31181U 99025BJK 25338.06268179  .00002906  00000+0  15976-2 0  9995", "line2": "2 31181  98.7766  10.8018 0048158  98.6212 317.7144 14.11841784956456"}}, "geometry": {"type": "Point", "coordinates": [20.989564069820688, -45.23012786242584]}}, {"type": "Feature", "properties": {"norad_id": 31182, "name": "FENGYUN 1C DEB", "group": "fengyun-1c-debris", "lat": 34.84546759241184, "lon": -37.706228800658124, "alt_km": 850.1996140996043, "timestamp": "2025-12-05T07:38:19.126304+00:00", "meta": {"OBJECT_NAME": "FENGYUN 1C DEB", "OBJECT_ID": "1999-025BJL", "EPOCH": "2025-11-30T19:23:45.055104", "MEAN_MOTION": 14.14526628, "ECCENTRICITY": 0.00226562, "INCLINATION": 98.6809, "RA_OF_ASC_NODE": 324.0155, "ARG_OF_PERICENTER": 170.3323, "MEAN_ANOMALY": 311.2725, "EPHEMERIS_TYPE": 0, "CLASSIFICATION_TYPE": "U", "NORAD_CAT_ID": 31182, "ELEMENT_SET_NO": 999, "REV_AT_EPOCH": 95912, "BSTAR": 0.00037537528, "MEAN_MOTION_DOT": 6.79e-06, "MEAN_MOTION_DDOT": 0}, "tle": {"line1": "1 31182U 99025BJL 25334.80816036  .00000679  00000+0  37538-3 0  9999", "line2": "2 31182  98.6809 324.0155 0022656 170.3323 311.2725 14.14526628959123"}}, "geometry": {"type": "Point", "coordinates": [-37.706228800658124, 34.84546759241184]}}]}